[{"OBJECT_NAME":"HAIYANG-3A","OBJECT_ID":"2023-176A","EPOCH":"2026-03-09T22:59:35.740320","MEAN_MOTION":14.34139944,"ECCENTRICITY":0.00087972,"INCLINATION":98.552,"RA_OF_ASC_NODE":148.0351,"ARG_OF_PERICENTER":324.745,"MEAN_ANOMALY":35.3152,"EPHEMERIS_TYPE":0,"CLASSIFICATION_TYPE":"U","NORAD_CAT_ID":58349,"ELEMENT_SET_NO":999,"REV_AT_EPOCH":12109,"BSTAR":7.6477628e-5,"MEAN_MOTION_DOT":1.7e-6,"MEAN_MOTION_DDOT":0},{"OBJECT_NAME":"CZ-6A DEB","OBJECT_ID":"2022-151AAL","EPOCH":"2026-03-09T00:17:23.247168","MEAN_MOTION":14.5862341,"ECCENTRICITY":0.01303704,"INCLINATION":98.4591,"RA_OF_ASC_NODE":94.5791,"ARG_OF_PERICENTER":245.8294,"MEAN_ANOMALY":112.9229,"EPHEMERIS_TYPE":0,"CLASSIFICATION_TYPE":"U","NORAD_CAT_ID":55888,"ELEMENT_SET_NO":999,"REV_AT_EPOCH":16987,"BSTAR":0.0016827818,"MEAN_MOTION_DOT":8.77e-5,"MEAN_MOTION_DDOT":0}]
